KUIPER-00157            
1 65970U 25228Z   26018.91670139 -.00317340  00000+0 -15796-1 0  9997
2 65970  51.8831 201.9645 0004283 166.9327  34.3818 15.18587546  4947
KUIPER-00144            
1 67133U 25301A   26018.21210526  .00030673  00000+0  85965-3 0  9991
2 67133  51.8722 309.1885 0006255 196.3110 163.7676 15.36323687  5971
KUIPER-00164            
1 67134U 25301B   26018.97908806  .00025713  00000+0  71162-3 0  9993
2 67134  51.8742 305.3344 0002930 172.1533 187.9500 15.36825073  6273
KUIPER-00175            
1 67135U 25301C   26018.96761482  .00171691  00000+0  44598-2 0  9999
2 67135  51.8749 305.2595 0000282  29.8464 330.2539 15.37794616  6169
KUIPER-00179            
1 67136U 25301D   26018.97593473  .00031758  00000+0  87101-3 0  9991
2 67136  51.8760 305.3149 0003199 152.5439 207.5717 15.36992248  6271
KUIPER-00181            
1 67137U 25301E   26018.91670139 -.00161636  00000+0 -49692-2 0  9994
2 67137  51.8659 306.0605 0011274 222.0861 292.4193 15.33695401  4085
KUIPER-00183            
1 67138U 25301F   26018.95723286  .00026568  00000+0  77722-3 0  9999
2 67138  51.8631 305.9039 0011566 222.9809 137.0273 15.35012832  6257
KUIPER-00184            
1 67139U 25301G   26018.94985293  .00025516  00000+0  74011-3 0  9997
2 67139  51.8634 305.8592 0009538 221.2000 138.8267 15.35324609  6367
